ONEWEB-0415             
1 51624U 22012C   25231.62662685  .00000441  00000+0  12274-2 0  9995
2 51624  87.8765  96.4175 0001396  78.5050 281.6234 13.10371982169790
ONEWEB-0416             
1 51625U 22012D   25231.56188916 -.00000182  00000+0 -55726-3 0  9993
2 51625  87.8768  96.4495 0001665  82.6839 277.4478 13.10369420169820
ONEWEB-0422             
1 51626U 22012E   25231.60893471  .00000060  00000+0  12052-3 0  9996
2 51626  87.9030  65.8547 0002003  66.7644 293.3698 13.17649126174093
ONEWEB-0423             
1 51627U 22012F   25231.52625403  .00000088  00000+0  19409-3 0  9999
2 51627  87.9031  65.8797 0001867  86.2132 273.9213 13.17649471173974
ONEWEB-0425             
1 51628U 22012G   25231.57183915 -.00000547  00000+0 -16035-2 0  9995
2 51628  87.8770  96.4171 0001946  88.6070 271.5280 13.10372553169829
ONEWEB-0428             
1 51629U 22012H   25231.62828435  .00000389  00000+0  10783-2 0  9991
2 51629  87.8767  96.4275 0001692  74.6029 285.5285 13.10372158169795
ONEWEB-0431             
1 51630U 22012J   25231.59827435  .00000169  00000+0  44677-3 0  9994
2 51630  87.8781  96.4043 0001222  60.4624 299.6625 13.10376741169841
ONEWEB-0434             
1 51631U 22012K   25231.57516376 -.00000589  00000+0 -17245-2 0  9990
2 51631  87.8773  96.4515 0002232  93.0128 267.1254 13.10371982169828
